[{"OBJECT_NAME":"STARLINK-34511","OBJECT_ID":"2025-176S","EPOCH":"2025-10-05T22:01:59.651328","MEAN_MOTION":15.39652178,"ECCENTRICITY":0.0001463,"INCLINATION":53.1602,"RA_OF_ASC_NODE":153.801,"ARG_OF_PERICENTER":88.7775,"MEAN_ANOMALY":271.3398,"EPHEMERIS_TYPE":0,"CLASSIFICATION_TYPE":"U","NORAD_CAT_ID":65214,"ELEMENT_SET_NO":999,"REV_AT_EPOCH":933,"BSTAR":0.0016871,"MEAN_MOTION_DOT":0.00067757,"MEAN_MOTION_DDOT":0},{"OBJECT_NAME":"STARLINK-33913","OBJECT_ID":"2025-176T","EPOCH":"2025-10-05T02:10:32.513376","MEAN_MOTION":15.30246953,"ECCENTRICITY":0.0001319,"INCLINATION":53.1593,"RA_OF_ASC_NODE":157.8771,"ARG_OF_PERICENTER":85.6265,"MEAN_ANOMALY":274.4886,"EPHEMERIS_TYPE":0,"CLASSIFICATION_TYPE":"U","NORAD_CAT_ID":65215,"ELEMENT_SET_NO":999,"REV_AT_EPOCH":926,"BSTAR":0.0022834,"MEAN_MOTION_DOT":0.00067987,"MEAN_MOTION_DDOT":0},{"OBJECT_NAME":"STARLINK-34302","OBJECT_ID":"2025-176U","EPOCH":"2025-10-06T09:16:23.638080","MEAN_MOTION":15.39558077,"ECCENTRICITY":0.0001223,"INCLINATION":53.1594,"RA_OF_ASC_NODE":151.748,"ARG_OF_PERICENTER":112.7563,"MEAN_ANOMALY":247.3571,"EPHEMERIS_TYPE":0,"CLASSIFICATION_TYPE":"U","NORAD_CAT_ID":65216,"ELEMENT_SET_NO":999,"REV_AT_EPOCH":946,"BSTAR":0.0043376,"MEAN_MOTION_DOT":0.00176822,"MEAN_MOTION_DDOT":0},{"OBJECT_NAME":"STARLINK-34871","OBJECT_ID":"2025-176V","EPOCH":"2025-10-06T09:09:42.742080","MEAN_MOTION":15.39636422,"ECCENTRICITY":0.000135,"INCLINATION":53.159,"RA_OF_ASC_NODE":151.7193,"ARG_OF_PERICENTER":77.9724,"MEAN_ANOMALY":282.1432,"EPHEMERIS_TYPE":0,"CLASSIFICATION_TYPE":"U","NORAD_CAT_ID":65217,"ELEMENT_SET_NO":999,"REV_AT_EPOCH":946,"BSTAR":0.0014782,"MEAN_MOTION_DOT":0.00059222,"MEAN_MOTION_DDOT":0},{"OBJECT_NAME":"STARLINK-34833","OBJECT_ID":"2025-176W","EPOCH":"2025-10-06T01:08:27.848256","MEAN_MOTION":15.39639002,"ECCENTRICITY":4.29e-5,"INCLINATION":53.1604,"RA_OF_ASC_NODE":153.1859,"ARG_OF_PERICENTER":49.2193,"MEAN_ANOMALY":310.8849,"EPHEMERIS_TYPE":0,"CLASSIFICATION_TYPE":"U","NORAD_CAT_ID":65218,"ELEMENT_SET_NO":999,"REV_AT_EPOCH":941,"BSTAR":0.0013082,"MEAN_MOTION_DOT":0.0005232,"MEAN_MOTION_DDOT":0},{"OBJECT_NAME":"STARLINK-34960","OBJECT_ID":"2025-176X","EPOCH":"2025-10-06T08:49:09.370848","MEAN_MOTION":15.39642464,"ECCENTRICITY":6.54e-5,"INCLINATION":53.163,"RA_OF_ASC_NODE":151.6258,"ARG_OF_PERICENTER":251.4727,"MEAN_ANOMALY":108.6207,"EPHEMERIS_TYPE":0,"CLASSIFICATION_TYPE":"U","NORAD_CAT_ID":65219,"ELEMENT_SET_NO":999,"REV_AT_EPOCH":946,"BSTAR":0.00098995,"MEAN_MOTION_DOT":0.00039432,"MEAN_MOTION_DDOT":0},{"OBJECT_NAME":"STARLINK-34603","OBJECT_ID":"2025-176Y","EPOCH":"2025-10-06T09:03:01.076256","MEAN_MOTION":15.39643067,"ECCENTRICITY":3.37e-5,"INCLINATION":53.1594,"RA_OF_ASC_NODE":151.6891,"ARG_OF_PERICENTER":13.2145,"MEAN_ANOMALY":346.8868,"EPHEMERIS_TYPE":0,"CLASSIFICATION_TYPE":"U","NORAD_CAT_ID":65220,"ELEMENT_SET_NO":999,"REV_AT_EPOCH":946,"BSTAR":0.0010743,"MEAN_MOTION_DOT":0.00042848,"MEAN_MOTION_DDOT":0},{"OBJECT_NAME":"STARLINK-34974","OBJECT_ID":"2025-176Z","EPOCH":"2025-10-06T08:35:47.533056","MEAN_MOTION":15.39628626,"ECCENTRICITY":8.75e-5,"INCLINATION":53.1595,"RA_OF_ASC_NODE":151.5698,"ARG_OF_PERICENTER":66.5859,"MEAN_ANOMALY":293.5238,"EPHEMERIS_TYPE":0,"CLASSIFICATION_TYPE":"U","NORAD_CAT_ID":65221,"ELEMENT_SET_NO":999,"REV_AT_EPOCH":946,"BSTAR":0.0013284,"MEAN_MOTION_DOT":0.00053121,"MEAN_MOTION_DDOT":0},{"OBJECT_NAME":"STARLINK-34999","OBJECT_ID":"2025-176AA","EPOCH":"2025-10-06T08:42:28.471392","MEAN_MOTION":15.39661526,"ECCENTRICITY":1.21e-5,"INCLINATION":53.1602,"RA_OF_ASC_NODE":151.5979,"ARG_OF_PERICENTER":338.2233,"MEAN_ANOMALY":21.8766,"EPHEMERIS_TYPE":0,"CLASSIFICATION_TYPE":"U","NORAD_CAT_ID":65222,"ELEMENT_SET_NO":999,"REV_AT_EPOCH":946,"BSTAR":0.0014435,"MEAN_MOTION_DOT":0.0005786,"MEAN_MOTION_DDOT":0},{"OBJECT_NAME":"STARLINK-34996","OBJECT_ID":"2025-176AB","EPOCH":"2025-10-06T03:28:36.769728","MEAN_MOTION":15.39625574,"ECCENTRICITY":9.07e-5,"INCLINATION":53.1581,"RA_OF_ASC_NODE":152.3672,"ARG_OF_PERICENTER":83.8416,"MEAN_ANOMALY":276.2693,"EPHEMERIS_TYPE":0,"CLASSIFICATION_TYPE":"U","NORAD_CAT_ID":65223,"ELEMENT_SET_NO":999,"REV_AT_EPOCH":943,"BSTAR":0.0011341,"MEAN_MOTION_DOT":0.00045242,"MEAN_MOTION_DDOT":0},{"OBJECT_NAME":"STARLINK-34975","OBJECT_ID":"2025-176AC","EPOCH":"2025-10-06T03:35:46.986432","MEAN_MOTION":15.39625201,"ECCENTRICITY":8.62e-5,"INCLINATION":53.158,"RA_OF_ASC_NODE":152.3985,"ARG_OF_PERICENTER":81.4372,"MEAN_ANOMALY":278.673,"EPHEMERIS_TYPE":0,"CLASSIFICATION_TYPE":"U","NORAD_CAT_ID":65224,"ELEMENT_SET_NO":999,"REV_AT_EPOCH":943,"BSTAR":0.0010859,"MEAN_MOTION_DOT":0.00043291,"MEAN_MOTION_DDOT":0},{"OBJECT_NAME":"STARLINK-34257","OBJECT_ID":"2025-176AD","EPOCH":"2025-10-06T08:29:05.562240","MEAN_MOTION":15.39618393,"ECCENTRICITY":0.0001178,"INCLINATION":53.1583,"RA_OF_ASC_NODE":151.5392,"ARG_OF_PERICENTER":89.7643,"MEAN_ANOMALY":270.3497,"EPHEMERIS_TYPE":0,"CLASSIFICATION_TYPE":"U","NORAD_CAT_ID":65225,"ELEMENT_SET_NO":999,"REV_AT_EPOCH":940,"BSTAR":0.00098309,"MEAN_MOTION_DOT":0.00039123,"MEAN_MOTION_DDOT":0},{"OBJECT_NAME":"STARLINK-34922","OBJECT_ID":"2025-184A","EPOCH":"2025-10-03T16:00:03.000096","MEAN_MOTION":15.30407595,"ECCENTRICITY":0.00015093,"INCLINATION":97.6042,"RA_OF_ASC_NODE":327.7833,"ARG_OF_PERICENTER":76.892,"MEAN_ANOMALY":41.0168,"EPHEMERIS_TYPE":0,"CLASSIFICATION_TYPE":"U","NORAD_CAT_ID":65273,"ELEMENT_SET_NO":999,"REV_AT_EPOCH":601,"BSTAR":-0.057168052,"MEAN_MOTION_DOT":-0.01512757,"MEAN_MOTION_DDOT":0},{"OBJECT_NAME":"STARLINK-34904","OBJECT_ID":"2025-184B","EPOCH":"2025-10-03T16:00:03.000096","MEAN_MOTION":15.20772551,"ECCENTRICITY":0.00022998,"INCLINATION":97.6049,"RA_OF_ASC_NODE":327.8033,"ARG_OF_PERICENTER":92.0645,"MEAN_ANOMALY":72.8417,"EPHEMERIS_TYPE":0,"CLASSIFICATION_TYPE":"U","NORAD_CAT_ID":65274,"ELEMENT_SET_NO":999,"REV_AT_EPOCH":601,"BSTAR":-0.094194245,"MEAN_MOTION_DOT":-0.01884064,"MEAN_MOTION_DDOT":0},{"OBJECT_NAME":"STARLINK-34954","OBJECT_ID":"2025-184C","EPOCH":"2025-10-03T16:00:03.000096","MEAN_MOTION":15.19848186,"ECCENTRICITY":0.00016355,"INCLINATION":97.6045,"RA_OF_ASC_NODE":327.7559,"ARG_OF_PERICENTER":67.8799,"MEAN_ANOMALY":349.4123,"EPHEMERIS_TYPE":0,"CLASSIFICATION_TYPE":"U","NORAD_CAT_ID":65275,"ELEMENT_SET_NO":999,"REV_AT_EPOCH":601,"BSTAR":-0.09574012,"MEAN_MOTION_DOT":-0.01865428,"MEAN_MOTION_DDOT":0},{"OBJECT_NAME":"STARLINK-34968","OBJECT_ID":"2025-184D","EPOCH":"2025-10-03T16:00:03.000096","MEAN_MOTION":15.19463855,"ECCENTRICITY":0.00020305,"INCLINATION":97.6048,"RA_OF_ASC_NODE":327.8318,"ARG_OF_PERICENTER":103.7796,"MEAN_ANOMALY":125.4617,"EPHEMERIS_TYPE":0,"CLASSIFICATION_TYPE":"U","NORAD_CAT_ID":65276,"ELEMENT_SET_NO":999,"REV_AT_EPOCH":601,"BSTAR":-0.09774866,"MEAN_MOTION_DOT":-0.01881896,"MEAN_MOTION_DDOT":0}]
