STARLINK-34511          
1 65214U 25176S   25278.91805152  .00067757  00000+0  16871-2 0  9990
2 65214  53.1602 153.8010 0001463  88.7775 271.3398 15.39652178  9336
STARLINK-33913          
1 65215U 25176T   25278.09065409  .00067987  00000+0  22834-2 0  9994
2 65215  53.1593 157.8771 0001319  85.6265 274.4886 15.30246953  9263
STARLINK-34302          
1 65216U 25176U   25279.38638470  .00176822  00000+0  43376-2 0  9995
2 65216  53.1594 151.7480 0001223 112.7563 247.3571 15.39558077  9466
STARLINK-34871          
1 65217U 25176V   25279.38174470  .00059222  00000+0  14782-2 0  9994
2 65217  53.1590 151.7193 0001350  77.9724 282.1432 15.39636422  9460
STARLINK-34833          
1 65218U 25176W   25279.04754454  .00052320  00000+0  13082-2 0  9998
2 65218  53.1604 153.1859 0000429  49.2193 310.8849 15.39639002  9413
STARLINK-34960          
1 65219U 25176X   25279.36746957  .00039432  00000+0  98995-3 0  9999
2 65219  53.1630 151.6258 0000654 251.4727 108.6207 15.39642464  9461
STARLINK-34603          
1 65220U 25176Y   25279.37709579  .00042848  00000+0  10743-2 0  9990
2 65220  53.1594 151.6891 0000337  13.2145 346.8868 15.39643067  9460
STARLINK-34974          
1 65221U 25176Z   25279.35818904  .00053121  00000+0  13284-2 0  9991
2 65221  53.1595 151.5698 0000875  66.5859 293.5238 15.39628626  9469
STARLINK-34999          
1 65222U 25176AA  25279.36282953  .00057860  00000+0  14435-2 0  9995
2 65222  53.1602 151.5979 0000121 338.2233  21.8766 15.39661526  9464
STARLINK-34996          
1 65223U 25176AB  25279.14487002  .00045242  00000+0  11341-2 0  9998
2 65223  53.1581 152.3672 0000907  83.8416 276.2693 15.39625574  9433
STARLINK-34975          
1 65224U 25176AC  25279.14984938  .00043291  00000+0  10859-2 0  9994
2 65224  53.1580 152.3985 0000862  81.4372 278.6730 15.39625201  9430
STARLINK-34257          
1 65225U 25176AD  25279.35353660  .00039123  00000+0  98309-3 0  9996
2 65225  53.1583 151.5392 0001178  89.7643 270.3497 15.39618393  9400
STARLINK-34922          
1 65273U 25184A   25276.66670139 -.01512757  00000+0 -57168-1 0  9990
2 65273  97.6042 327.7833 0001509  76.8920  41.0168 15.30407595  6019
STARLINK-34904          
1 65274U 25184B   25276.66670139 -.01884064  00000+0 -94194-1 0  9994
2 65274  97.6049 327.8033 0002299  92.0645  72.8417 15.20772551  6016
STARLINK-34954          
1 65275U 25184C   25276.66670139 -.01865428  00000+0 -95740-1 0  9996
2 65275  97.6045 327.7559 0001635  67.8799 349.4123 15.19848186  6011
STARLINK-34968          
1 65276U 25184D   25276.66670139 -.01881896  00000+0 -97749-1 0  9995
2 65276  97.6048 327.8318 0002030 103.7796 125.4617 15.19463855  6012
